OBJECT_NAME,OBJECT_ID,EPOCH,MEAN_MOTION,ECCENTRICITY,INCLINATION,RA_OF_ASC_NODE,ARG_OF_PERICENTER,MEAN_ANOMALY,EPHEMERIS_TYPE,CLASSIFICATION_TYPE,NORAD_CAT_ID,ELEMENT_SET_NO,REV_AT_EPOCH,BSTAR,MEAN_MOTION_DOT,MEAN_MOTION_DDOT
SAUDISAT 2,2004-025F,2026-07-11T19:48:59.987520,14.56697171,.00239004,98.5518,193.4453,218.7819,141.1664,0,U,28371,999,16933,.37868363E-4,.12E-5,0
APRIZESAT 1,2004-025G,2026-07-11T13:19:03.574272,14.51790724,.00458116,98.6308,203.9438,81.4406,279.1975,0,U,28372,999,16544,.45608026E-4,.137E-5,0
AURA,2004-026A,2026-07-12T02:45:16.992000,14.61365176,.0001281,98.3429,149.7767,92.5584,267.5763,0,U,28376,999,16985,.89439E-4,.394E-5,0
ANIK F2,2004-027A,2026-07-12T04:25:44.694048,1.00271164,.0003557,3.3495,79.1121,30.8308,135.4467,0,U,28378,999,4151,0,-.51E-6,0
COSMOS 2407,2004-028A,2026-07-11T17:04:16.231008,13.76336372,.00390672,82.9588,56.6682,181.8019,243.1850,0,U,28380,999,10325,.25309837E-4,.4E-6,0
SHIJIAN-6 01A (SJ-6 01A),2004-035A,2026-07-12T00:20:00.066624,15.18356744,.0007414,97.5859,220.1870,61.5857,298.6123,0,U,28413,999,19123,.24006E-3,.4865E-4,0
SHIJIAN-6 01B (SJ-6 01B),2004-035B,2026-07-12T05:26:49.432992,15.06502607,.0006531,97.6051,210.7742,66.6308,293.5606,0,U,28414,999,19059,.15305E-3,.22E-4,0
COSMOS 2408,2004-037A,2026-07-12T03:32:33.415008,12.45680950,.0015624,82.4868,310.2274,210.1521,149.8663,0,U,28419,999,99101,.21519E-3,.41E-6,0
COSMOS 2409,2004-037B,2026-07-12T04:41:12.886656,12.45323752,.0013048,82.4871,313.4348,221.1282,138.8816,0,U,28420,999,99066,-.28314E-3,-.31E-6,0
AMC-15,2004-041A,2026-07-12T03:09:18.296064,1.00271279,.0002284,0.0348,303.4038,185.9206,102.9745,0,U,28446,999,7955,0,-.86E-6,0
JB-3 3 (ZY 2C),2004-044A,2026-07-11T08:44:42.912384,15.19507916,.00344025,97.2788,345.0811,134.4174,225.9886,0,U,28470,999,19145,.12878634E-3,.2709E-4,0
NAVSTAR 56 (USA 180),2004-045A,2026-07-11T17:37:53.702976,2.00556859,.01701194,55.1204,323.9078,316.9752,44.7539,0,U,28474,999,15892,0,-.85E-6,0
SWIFT,2004-047A,2026-07-12T03:56:09.508416,15.70909777,.0001681,20.5532,351.8795,347.8899,12.1507,0,U,28485,999,19079,.31133E-3,.41867E-3,0
NANOSAT-1,2004-049B,2026-07-11T20:14:03.595488,14.80207016,.00035235,98.2305,330.1116,195.3532,164.7572,0,U,28493,999,15909,.7898276E-4,.545E-5,0
COSMOS 2414,2005-002A,2026-07-11T23:24:50.995008,13.87928061,.0038701,82.9486,24.8912,258.3745,101.3074,0,U,28521,999,8725,.38145E-4,.61E-6,0
NSS-10,2005-003A,2026-07-12T04:53:40.734816,1.00270905,.0002578,6.5097,70.1454,38.0995,217.8253,0,U,28526,999,5340,0,-.256E-5,0
INMARSAT 4-F1,2005-009A,2026-07-11T17:49:37.578720,1.00270973,.00024991,5.2002,42.7797,72.5823,259.7934,0,U,28628,999,7791,0,.32E-6,0
IRS-P5 (CARTOSAT-1),2005-017A,2026-07-12T01:00:40.036320,14.91112446,.0001564,97.5306,214.9790,55.5912,304.5454,0,U,28649,999,14752,.66622E-4,.608E-5,0
DIRECTV 8,2005-019A,2026-07-12T02:40:48.168768,1.00271091,.0003028,0.0201,75.6431,50.2413,85.2707,0,U,28659,999,7732,0,.4E-7,0
GALAXY 28 (G-28),2005-022A,2026-07-12T03:28:18.634368,1.00270933,.0002314,3.3609,78.6277,29.9876,206.3951,0,U,28702,999,5222,0,-.201E-5,0
SJ-7,2005-024A,2026-07-12T01:52:24.944736,15.21907713,.001384,97.7279,223.8554,308.7466,51.2532,0,U,28737,999,15181,.19931E-3,.4474E-4,0
THAICOM 4,2005-028A,2026-07-11T19:15:29.880288,1.00269596,.00013897,0.3063,85.5355,12.0878,240.4444,0,U,28786,999,5249,0,-.358E-5,0
REIMEI (INDEX),2005-031B,2026-07-11T19:50:50.008416,15.11147083,.00198209,98.0164,318.0073,31.7578,328.4842,0,U,28810,999,13471,.19334468E-3,.3184E-4,0
ANIK F1R,2005-036A,2026-07-12T03:11:12.942816,1.00271312,.0003722,4.3738,76.2694,26.9449,127.3180,0,U,28868,999,4670,0,-.77E-6,0
NAVSTAR 57 (USA 183),2005-038A,2026-07-11T23:34:45.882336,2.00563880,.0128174,54.8581,272.1758,296.3773,208.8135,0,U,28874,999,15233,0,0,0
SYRACUSE 3A,2005-041B,2026-07-12T00:32:51.603072,1.00272724,.0002744,4.7034,75.5350,29.8831,239.3434,0,U,28885,999,7599,0,.127E-5,0
BEIJING 1,2005-043A,2026-07-12T04:09:39.417696,14.63546135,.0014026,98.2937,326.5292,198.9149,161.1534,0,U,28890,999,10430,.63958E-5,-.16E-6,0
SINAH 1,2005-043D,2026-07-12T04:52:09.011712,14.64174367,.0014173,98.2889,327.6763,192.9646,167.1194,0,U,28893,999,10418,.37829E-4,.15E-5,0
CUBESAT XI-V,2005-043F,2026-07-11T09:17:30.194592,14.72696464,.00151315,98.3011,348.5214,126.3821,233.8784,0,U,28895,999,10531,.13420163E-3,.804E-5,0
INMARSAT 4-F2,2005-044A,2026-07-12T00:30:01.248192,1.00271075,.0002784,5.1261,43.6542,60.0005,337.2653,0,U,28899,999,7577,0,-.262E-5,0
COSMOS 2416 (RODNIK-S 1),2005-048A,2026-07-12T04:59:57.907968,12.55601015,.0009221,82.4697,291.6585,113.6394,270.0072,0,U,28908,999,94204,.16987E-4,.13E-6,0
METEOSAT-9 (MSG-2),2005-049B,2026-07-11T17:26:38.772960,1.00270407,.00020492,9.4145,53.9209,357.1028,185.9350,0,U,28912,999,724,0,.12E-5,0
EUTELSAT 174A,2005-052A,2026-07-11T14:50:49.830720,1.00270269,.00057839,4.2778,76.2239,36.7704,213.1891,0,U,28924,999,5257,0,.9E-7,0
ECHOSTAR 10,2006-003A,2026-07-12T04:25:59.668896,1.00270597,.0001091,0.0366,305.5143,140.4375,160.4487,0,U,28935,999,7471,0,-.53E-6,0
SPAINSAT,2006-007A,2026-07-11T06:44:08.847744,1.00270284,.0004627,0.6228,86.1239,23.6398,250.2819,0,U,28945,999,7445,0,-.211E-5,0
JCSAT-5A,2006-010A,2026-07-12T00:27:01.536192,1.00270773,.0001643,1.1710,83.9421,22.7465,322.0241,0,U,29045,999,7401,0,-.326E-5,0
ASTRA 1KR,2006-012A,2026-07-12T03:20:11.143104,1.00268941,.0003304,0.5357,83.1792,20.1496,255.7614,0,U,29055,999,4594,0,.121E-5,0
RESURS-DK 1,2006-021A,2026-07-11T14:59:58.583040,15.13311404,.0006915,69.9312,276.2899,275.2250,84.8127,0,U,29228,999,10627,.6271749E-4,.1011E-4,0
GALAXY 16 (G-16),2006-023A,2026-07-12T05:29:53.771712,1.00271234,.0002445,0.0369,113.0101,8.0308,152.5559,0,U,29236,999,7322,0,-.124E-5,0
ARIRANG-2 (KOMPSAT-2),2006-031A,2026-07-12T04:08:47.740128,14.64674474,.0014519,97.8315,16.4116,0.5430,128.6037,0,U,29268,999,6513,.33127E-4,.131E-5,0
EUTELSAT 33F,2006-032A,2026-07-12T03:24:10.758816,1.00270130,.0003386,1.7235,81.9641,26.1899,265.9923,0,U,29270,999,4755,0,.156E-5,0
JCSAT-3A,2006-033A,2026-07-12T00:25:54.143328,1.00269405,.0002477,0.0158,324.2509,165.1573,294.9738,0,U,29272,999,4798,0,-.342E-5,0
KOREASAT 5 (MUGUNGWHA 5),2006-034A,2026-07-12T01:50:38.563008,1.00271387,.0001682,1.8467,82.6818,78.9364,269.0768,0,U,29349,999,4156,0,-.357E-5,0
HINODE (SOLAR-B),2006-041A,2026-07-11T23:38:34.088064,14.68655866,.0016778,98.0548,208.7721,204.9275,155.1121,0,U,29479,999,5851,.69282E-4,.355E-5,0
NAVSTAR 58 (USA 190),2006-042A,2026-07-11T16:03:00.279936,2.00568391,.01070755,54.7126,150.3670,55.0446,122.5056,0,U,29486,999,14488,0,.3E-6,0
DIRECTV 9S,2006-043A,2026-07-12T02:40:50.714112,1.00270972,.000499,2.4824,80.6017,32.8009,115.6157,0,U,29494,999,5163,0,-.113E-5,0
OPTUS D1,2006-043B,2026-07-12T03:58:00.018336,1.00270355,.00033,3.0964,79.3487,30.3604,31.8162,0,U,29495,999,7237,0,-.185E-5,0
SHIJIAN-6 02A (SJ-6 02A),2006-046A,2026-07-12T03:43:55.849728,15.17224309,.0004547,97.6353,234.4116,71.4190,288.7536,0,U,29505,999,7605,.14164E-3,.2747E-4,0
SHIJIAN-6 02B (SJ-6 02B),2006-046B,2026-07-12T04:55:26.288832,15.01433978,.001376,97.7156,222.1090,346.4794,13.6060,0,U,29506,999,7449,.42597E-4,.49E-5,0
DMSP 5D-3 F17 (USA 191),2006-050A,2026-07-12T04:50:06.301248,14.14996065,.0009896,98.7385,199.2603,351.6417,8.4590,0,U,29522,999,1596,.18985E-4,-.7E-7,0
BADR-4,2006-051A,2026-07-12T03:24:33.222816,1.00269498,.0004705,2.0665,80.8447,28.1963,266.5899,0,U,29526,999,5151,0,.156E-5,0
NAVSTAR 59 (USA 192),2006-052A,2026-07-11T08:25:02.489664,2.00559408,.0084794,54.9326,213.0483,90.9946,270.0407,0,U,29601,999,14389,0,.105E-5,0
WILDBLUE-1,2006-054A,2026-07-12T04:25:44.694048,1.00270990,.0001247,2.8649,80.1702,33.9868,131.1512,0,U,29643,999,5404,0,-.5E-6,0
LAPAN-TUBSAT,2007-001A,2026-07-12T05:40:38.320896,14.85977407,.0013615,98.1352,193.0262,102.2930,257.9809,0,U,29709,999,5487,.10016E-3,.818E-5,0
THEMIS A,2007-004A,2026-07-10T04:59:00.303360,0.87843993,.83599694,8.6664,107.7658,203.7078,64.0534,0,U,30580,999,4148,-.26021308E-1,-.549E-5,0
SKYNET 5A,2007-007B,2026-07-12T02:57:21.692736,1.00270507,.000369,5.3617,73.4363,41.0189,315.1191,0,U,30794,999,7094,0,-.274E-5,0
THEMIS D,2007-004D,2026-07-11T09:34:26.047776,0.87589137,.83271718,7.8464,79.2964,234.6711,354.4938,0,U,30797,999,4128,0,-.573E-5,0
THEMIS E,2007-004E,2026-07-03T23:29:48.598080,0.88041892,.8437049,6.5283,97.0944,218.5457,13.1584,0,U,30798,999,6606,0,-.4E-5,0
ANIK F3,2007-009A,2026-07-11T23:15:35.316864,1.00272014,.000248,1.2589,83.5537,37.2214,39.2783,0,U,31102,999,4681,0,.1E-7,0
HAIYANG-1B,2007-010A,2026-07-11T19:50:17.174688,14.31032783,.00145476,98.3512,173.7181,125.1075,235.1475,0,U,31113,999,416,.31073115E-4,.4E-6,0
SAUDISAT 3,2007-012B,2026-07-11T19:22:37.593984,14.71439201,.00153705,98.1466,143.2258,144.8972,215.3250,0,U,31118,999,3136,.25979124E-4,.11E-5,0
SAUDICOMSAT 7,2007-012C,2026-07-12T03:50:06.796032,14.66134783,.0056871,98.3795,167.8048,117.5919,243.1076,0,U,31119,999,2609,.57071E-4,.268E-5,0
SAUDICOMSAT 6,2007-012E,2026-07-11T20:32:20.012352,14.62582926,.00704226,98.4114,160.8339,249.6899,109.6724,0,U,31121,999,2379,.4882703E-4,.202E-5,0
SAUDICOMSAT 5,2007-012H,2026-07-12T03:59:37.767840,14.68189859,.0048409,98.3507,168.5534,48.2051,312.3273,0,U,31124,999,2726,.70366E-4,.358E-5,0
SAUDICOMSAT 3,2007-012J,2026-07-11T21:06:25.521120,14.70746738,.00384943,98.3161,168.8072,335.8864,24.0538,0,U,31125,999,2845,.78990702E-4,.433E-5,0
SAUDICOMSAT 4,2007-012L,2026-07-11T21:17:49.228512,14.64533726,.00633159,98.4001,165.9639,180.0667,180.0537,0,U,31127,999,2490,.48958994E-4,.213E-5,0
ASTRA 1L,2007-016A,2026-07-11T08:18:34.530336,1.00270600,.00052479,1.3814,81.3786,33.1637,274.8448,0,U,31306,999,4522,0,-.18E-5,0
GALAXY 17 (G-17),2007-016B,2026-07-12T05:22:48.357120,1.00270557,.000355,3.0323,79.5853,33.3180,172.8914,0,U,31307,999,7005,0,-.207E-5,0
YAOGAN-2,2007-019A,2026-07-12T01:23:43.493856,14.82723814,.0020244,98.2619,54.4750,189.7833,170.2988,0,U,31490,999,3130,.90855E-4,.678E-5,0
